[{"OBJECT_NAME":"STARLINK-5231","OBJECT_ID":"2022-141AB","EPOCH":"2026-03-09T22:48:54.033696","MEAN_MOTION":15.08841807,"ECCENTRICITY":0.00013421,"INCLINATION":53.2194,"RA_OF_ASC_NODE":332.5783,"ARG_OF_PERICENTER":104.7812,"MEAN_ANOMALY":255.3329,"EPHEMERIS_TYPE":0,"CLASSIFICATION_TYPE":"U","NORAD_CAT_ID":54182,"ELEMENT_SET_NO":999,"REV_AT_EPOCH":18632,"BSTAR":-0.00016671763,"MEAN_MOTION_DOT":-2.94e-5,"MEAN_MOTION_DDOT":0},{"OBJECT_NAME":"ARIANE 44LP DEB [SPELDA]","OBJECT_ID":"2000-046C","EPOCH":"2026-03-09T21:21:49.456800","MEAN_MOTION":4.53259247,"ECCENTRICITY":0.55178741,"INCLINATION":3.5448,"RA_OF_ASC_NODE":273.096,"ARG_OF_PERICENTER":215.3783,"MEAN_ANOMALY":90.6355,"EPHEMERIS_TYPE":0,"CLASSIFICATION_TYPE":"U","NORAD_CAT_ID":26471,"ELEMENT_SET_NO":999,"REV_AT_EPOCH":34831,"BSTAR":0.0010949822,"MEAN_MOTION_DOT":3.65e-6,"MEAN_MOTION_DDOT":0}]
